{
    "links": {
        "self": "http://www.neowsapp.com/rest/v1/neo/3760487?api_key=iIulBulltgU6a56xZRHN4H3l9WmuAYTsLGpBGhQ2"
    },
    "id": "3760487",
    "neo_reference_id": "3760487",
    "name": "(2016 TV10)",
    "designation": "2016 TV10",
    "nasa_jpl_url": "http://ssd.jpl.nasa.gov/sbdb.cgi?sstr=3760487",
    "absolute_magnitude_h": 23.8,
    "estimated_diameter": {
        "kilometers": {
            "estimated_diameter_min": 0.046190746,
            "estimated_diameter_max": 0.1032856481
        },
        "meters": {
            "estimated_diameter_min": 46.1907460282,
            "estimated_diameter_max": 103.2856480504
        },
        "miles": {
            "estimated_diameter_min": 0.0287015901,
            "estimated_diameter_max": 0.0641787064
        },
        "feet": {
            "estimated_diameter_min": 151.544447199,
            "estimated_diameter_max": 338.8636855496
        }
    },
    "is_potentially_hazardous_asteroid": false,
    "close_approach_data": [
        {
            "close_approach_date": "2016-10-26",
            "close_approach_date_full": "2016-Oct-26 11:13",
            "epoch_date_close_approach": 1477480380000,
            "relative_velocity": {
                "kilometers_per_second": "14.7004042074",
                "kilometers_per_hour": "52921.4551465723",
                "miles_per_hour": "32883.334171491"
            },
            "miss_distance": {
                "astronomical": "0.0687173413",
                "lunar": "26.7310457657",
                "kilometers": "10279967.890543031",
                "miles": "6387675.8467185878"
            },
            "orbiting_body": "Earth"
        }
    ],
    "orbital_data": {
        "orbit_id": "11",
        "orbit_determination_date": "2019-12-04 07:15:43",
        "first_observation_date": "2016-10-05",
        "last_observation_date": "2016-10-27",
        "data_arc_in_days": 22,
        "observations_used": 55,
        "orbit_uncertainty": "8",
        "minimum_orbit_intersection": ".0687456",
        "jupiter_tisserand_invariant": "3.416",
        "epoch_osculation": "2457672.5",
        "eccentricity": ".6206856703085482",
        "semi_major_axis": "2.151049424900983",
        "inclination": "8.38816640872513",
        "ascending_node_longitude": "6.787234541243047",
        "orbital_period": "1152.322417651342",
        "perihelion_distance": ".8159238707394995",
        "perihelion_argument": "87.31149543099814",
        "aphelion_distance": "3.486174979062467",
        "perihelion_time": "2457729.383162226426",
        "mean_anomaly": "342.2289854924012",
        "mean_motion": ".3124125630860763",
        "equinox": "J2000",
        "orbit_class": {
            "orbit_class_type": "APO",
            "orbit_class_description": "Near-Earth asteroid orbits which cross the Earth’s orbit similar to that of 1862 Apollo",
            "orbit_class_range": "a (semi-major axis) > 1.0 AU; q (perihelion) < 1.017 AU"
        }
    },
    "is_sentry_object": false
}